{
    "week": 287,
    "satellites": [
        {
            "Name": "GSAT0101 (GALILEO-PFM)",
            "Line1": "1 37846U 11060A   24280.58780822 -.00000083  00000+0  00000+0 0  9992",
            "Line2": "2 37846  57.1243 358.5242 0000448 309.5915  50.4597  1.70475875 80573",
            "SatelliteNumber": "37846",
            "Classification": "U",
            "LaunchYear": "11",
            "LaunchNumber": "060",
            "PieceOfLaunch": "A",
            "EpochYear": "24",
            "EpochDay": 280.58780822,
            "FirstDerivativeMeanMotion": -8.3e-07,
            "SecondDerivativeMeanMotion": "00000+0",
            "BSTAR": "00000+0",
            "SetNumber": "999",
            "Inclination": 57.1243,
            "RAAN": 358.5242,
            "Eccentricity": 4.48e-05,
            "ArgumentOfPerigee": 309.5915,
            "MeanAnomaly": 50.4597,
            "MeanMotion": 1.70475875,
            "RevolutionNumber": "8057"
        },
        {
            "Name": "GSAT0102 (GALILEO-FM2)",
            "Line1": "1 37847U 11060B   24281.10404336 -.00000082  00000+0  00000+0 0  9994",
            "Line2": "2 37847  57.1247 358.5103 0002078 302.3187  60.0406  1.70475363 80597",
            "SatelliteNumber": "37847",
            "Classification": "U",
            "LaunchYear": "11",
            "LaunchNumber": "060",
            "PieceOfLaunch": "B",
            "EpochYear": "24",
            "EpochDay": 281.10404336,
            "FirstDerivativeMeanMotion": -8.2e-07,
            "SecondDerivativeMeanMotion": "00000+0",
            "BSTAR": "00000+0",
            "SetNumber": "999",
            "Inclination": 57.1247,
            "RAAN": 358.5103,
            "Eccentricity": 0.0002078,
            "ArgumentOfPerigee": 302.3187,
            "MeanAnomaly": 60.0406,
            "MeanMotion": 1.70475363,
            "RevolutionNumber": "8059"
        },
        {
            "Name": "GSAT0103 (GALILEO-FM3)",
            "Line1": "1 38857U 12055A   24280.04069060  .00000058  00000+0  00000+0 0  9996",
            "Line2": "2 38857  55.4557 118.5574 0002005 266.2042  93.8553  1.70473724 74452",
            "SatelliteNumber": "38857",
            "Classification": "U",
            "LaunchYear": "12",
            "LaunchNumber": "055",
            "PieceOfLaunch": "A",
            "EpochYear": "24",
            "EpochDay": 280.0406906,
            "FirstDerivativeMeanMotion": 5.8e-07,
            "SecondDerivativeMeanMotion": "00000+0",
            "BSTAR": "00000+0",
            "SetNumber": "999",
            "Inclination": 55.4557,
            "RAAN": 118.5574,
            "Eccentricity": 0.0002005,
            "ArgumentOfPerigee": 266.2042,
            "MeanAnomaly": 93.8553,
            "MeanMotion": 1.70473724,
            "RevolutionNumber": "7445"
        },
        {
            "Name": "GSAT0201 (GALILEO 5)",
            "Line1": "1 40128U 14050A   24281.19758264 -.00000028  00000+0  00000+0 0  9993",
            "Line2": "2 40128  49.5446 298.5546 1613921 155.6319 212.9522  1.85519597 66859",
            "SatelliteNumber": "40128",
            "Classification": "U",
            "LaunchYear": "14",
            "LaunchNumber": "050",
            "PieceOfLaunch": "A",
            "EpochYear": "24",
            "EpochDay": 281.19758264,
            "FirstDerivativeMeanMotion": -2.8e-07,
            "SecondDerivativeMeanMotion": "00000+0",
            "BSTAR": "00000+0",
            "SetNumber": "999",
            "Inclination": 49.5446,
            "RAAN": 298.5546,
            "Eccentricity": 0.1613921,
            "ArgumentOfPerigee": 155.6319,
            "MeanAnomaly": 212.9522,
            "MeanMotion": 1.85519597,
            "RevolutionNumber": "6685"
        },
        {
            "Name": "GSAT0202 (GALILEO 6)",
            "Line1": "1 40129U 14050B   24279.29950053 -.00000041  00000+0  00000+0 0  9997",
            "Line2": "2 40129  49.5630 297.7095 1613061 156.3533 211.9899  1.85520356 68950",
            "SatelliteNumber": "40129",
            "Classification": "U",
            "LaunchYear": "14",
            "LaunchNumber": "050",
            "PieceOfLaunch": "B",
            "EpochYear": "24",
            "EpochDay": 279.29950053,
            "FirstDerivativeMeanMotion": -4.1e-07,
            "SecondDerivativeMeanMotion": "00000+0",
            "BSTAR": "00000+0",
            "SetNumber": "999",
            "Inclination": 49.563,
            "RAAN": 297.7095,
            "Eccentricity": 0.1613061,
            "ArgumentOfPerigee": 156.3533,
            "MeanAnomaly": 211.9899,
            "MeanMotion": 1.85520356,
            "RevolutionNumber": "6895"
        },
        {
            "Name": "GSAT0203 (GALILEO 7)",
            "Line1": "1 40544U 15017A   24280.95335824 -.00000082  00000+0  00000+0 0  9995",
            "Line2": "2 40544  56.9191 358.4330 0005077 246.3170 113.6851  1.70476293 58667",
            "SatelliteNumber": "40544",
            "Classification": "U",
            "LaunchYear": "15",
            "LaunchNumber": "017",
            "PieceOfLaunch": "A",
            "EpochYear": "24",
            "EpochDay": 280.95335824,
            "FirstDerivativeMeanMotion": -8.2e-07,
            "SecondDerivativeMeanMotion": "00000+0",
            "BSTAR": "00000+0",
            "SetNumber": "999",
            "Inclination": 56.9191,
            "RAAN": 358.433,
            "Eccentricity": 0.0005077,
            "ArgumentOfPerigee": 246.317,
            "MeanAnomaly": 113.6851,
            "MeanMotion": 1.70476293,
            "RevolutionNumber": "5866"
        },
        {
            "Name": "GSAT0204 (GALILEO 8)",
            "Line1": "1 40545U 15017B   24280.03469253 -.00000085  00000+0  00000+0 0  9992",
            "Line2": "2 40545  56.9255 358.4740 0004823 232.7433 127.2671  1.70475938 21692",
            "SatelliteNumber": "40545",
            "Classification": "U",
            "LaunchYear": "15",
            "LaunchNumber": "017",
            "PieceOfLaunch": "B",
            "EpochYear": "24",
            "EpochDay": 280.03469253,
            "FirstDerivativeMeanMotion": -8.5e-07,
            "SecondDerivativeMeanMotion": "00000+0",
            "BSTAR": "00000+0",
            "SetNumber": "999",
            "Inclination": 56.9255,
            "RAAN": 358.474,
            "Eccentricity": 0.0004823,
            "ArgumentOfPerigee": 232.7433,
            "MeanAnomaly": 127.2671,
            "MeanMotion": 1.70475938,
            "RevolutionNumber": "2169"
        },
        {
            "Name": "GSAT0205 (GALILEO 9)",
            "Line1": "1 40889U 15045A   24279.21618446  .00000010  00000+0  00000+0 0  9999",
            "Line2": "2 40889  55.1729 238.7299 0003967  14.7716 345.2026  1.70473176 56448",
            "SatelliteNumber": "40889",
            "Classification": "U",
            "LaunchYear": "15",
            "LaunchNumber": "045",
            "PieceOfLaunch": "A",
            "EpochYear": "24",
            "EpochDay": 279.21618446,
            "FirstDerivativeMeanMotion": 1e-07,
            "SecondDerivativeMeanMotion": "00000+0",
            "BSTAR": "00000+0",
            "SetNumber": "999",
            "Inclination": 55.1729,
            "RAAN": 238.7299,
            "Eccentricity": 0.0003967,
            "ArgumentOfPerigee": 14.7716,
            "MeanAnomaly": 345.2026,
            "MeanMotion": 1.70473176,
            "RevolutionNumber": "5644"
        },
        {
            "Name": "GSAT0206 (GALILEO 10)",
            "Line1": "1 40890U 15045B   24280.61001934  .00000018  00000+0  00000+0 0  9993",
            "Line2": "2 40890  55.1715 238.6868 0002360 351.3401   8.6265  1.70473180 56498",
            "SatelliteNumber": "40890",
            "Classification": "U",
            "LaunchYear": "15",
            "LaunchNumber": "045",
            "PieceOfLaunch": "B",
            "EpochYear": "24",
            "EpochDay": 280.61001934,
            "FirstDerivativeMeanMotion": 1.8e-07,
            "SecondDerivativeMeanMotion": "00000+0",
            "BSTAR": "00000+0",
            "SetNumber": "999",
            "Inclination": 55.1715,
            "RAAN": 238.6868,
            "Eccentricity": 0.000236,
            "ArgumentOfPerigee": 351.3401,
            "MeanAnomaly": 8.6265,
            "MeanMotion": 1.7047318,
            "RevolutionNumber": "5649"
        },
        {
            "Name": "GSAT0209 (GALILEO 12)",
            "Line1": "1 41174U 15079A   24280.19332710  .00000058  00000+0  00000+0 0  9992",
            "Line2": "2 41174  55.4744 118.2634 0002402 355.9751   4.1042  1.70474213 54229",
            "SatelliteNumber": "41174",
            "Classification": "U",
            "LaunchYear": "15",
            "LaunchNumber": "079",
            "PieceOfLaunch": "A",
            "EpochYear": "24",
            "EpochDay": 280.1933271,
            "FirstDerivativeMeanMotion": 5.8e-07,
            "SecondDerivativeMeanMotion": "00000+0",
            "BSTAR": "00000+0",
            "SetNumber": "999",
            "Inclination": 55.4744,
            "RAAN": 118.2634,
            "Eccentricity": 0.0002402,
            "ArgumentOfPerigee": 355.9751,
            "MeanAnomaly": 4.1042,
            "MeanMotion": 1.70474213,
            "RevolutionNumber": "5422"
        }
    ]
}